python ../estimator.py --lat 53.7875 --lon 18.5273 --aos "2022-01-19 06:43:02.29718" --los "2022-01-19 06:50:38.741211" --tle1 "1 25338U 98030A   22013.92577031  .00000056  00000+0  41618-4 0  9997" --tle2 "2 25338  98.6623  45.3451 0010861  33.0991 327.0867 14.26082030230992" 4808.png
python ../estimator.py --lat 53.7875 --lon 18.5273 --aos "2022-01-19 08:06:02.809138" --los "2022-01-19 08:12:27.195769" --tle1 "1 33591U 09005A   22013.93260389  .00000074  00000+0  65456-4 0  9993" --tle2 "2 33591  99.1670  44.6804 0013014 261.4100  98.5596 14.12521795666371" 4809.png
python ../estimator.py --lat 53.7875 --lon 18.5273 --aos "2022-01-19 08:30:02.094242" --los "2022-01-19 08:36:01.454422" --tle1 "1 28654U 05018A   22013.87772312  .00000089  00000+0  71973-4 0  9991" --tle2 "2 28654  98.9699  84.3148 0014856  51.3133 308.9365 14.12676473858157" 4810.png
python ../estimator.py --lat 53.7875 --lon 18.5273 --aos "2022-01-19 10:10:01.989663" --los "2022-01-19 10:17:46.056884" --tle1 "1 28654U 05018A   22013.87772312  .00000089  00000+0  71973-4 0  9991" --tle2 "2 28654  98.9699  84.3148 0014856  51.3133 308.9365 14.12676473858157" 4811.png
python ../estimator.py --lat 53.7875 --lon 18.5273 --aos "2022-01-19 16:18:02.390863" --los "2022-01-19 16:24:50.056257" --tle1 "1 33591U 09005A   22013.93260389  .00000074  00000+0  65456-4 0  9993" --tle2 "2 33591  99.1670  44.6804 0013014 261.4100  98.5596 14.12521795666371" 4812.png
python ../estimator.py --lat 53.7875 --lon 18.5273 --aos "2022-01-19 16:30:02.425396" --los "2022-01-19 16:37:02.386895" --tle1 "1 25338U 98030A   22013.92577031  .00000056  00000+0  41618-4 0  9997" --tle2 "2 25338  98.6623  45.3451 0010861  33.0991 327.0867 14.26082030230992" 4814.png
python ../estimator.py --lat 53.7875 --lon 18.5273 --aos "2022-01-19 17:58:02.368454" --los "2022-01-19 18:05:49.327331" --tle1 "1 33591U 09005A   22013.93260389  .00000074  00000+0  65456-4 0  9993" --tle2 "2 33591  99.1670  44.6804 0013014 261.4100  98.5596 14.12521795666371" 4816.png
python ../estimator.py --lat 53.7875 --lon 18.5273 --aos "2022-01-19 18:10:02.754028" --los "2022-01-19 18:16:55.887289" --tle1 "1 25338U 98030A   22013.92577031  .00000056  00000+0  41618-4 0  9997" --tle2 "2 25338  98.6623  45.3451 0010861  33.0991 327.0867 14.26082030230992" 4818.png
python ../estimator.py --lat 53.7875 --lon 18.5273 --aos "2022-01-19 20:02:02.854034" --los "2022-01-19 20:10:22.594649" --tle1 "1 28654U 05018A   22013.87772312  .00000089  00000+0  71973-4 0  9991" --tle2 "2 28654  98.9699  84.3148 0014856  51.3133 308.9365 14.12676473858157" 4821.png
python ../estimator.py --lat 53.7875 --lon 18.5273 --aos "2022-01-20 06:13:02.559305" --los "2022-01-20 06:18:09.475544" --tle1 "1 33591U 09005A   22013.93260389  .00000074  00000+0  65456-4 0  9993" --tle2 "2 33591  99.1670  44.6804 0013014 261.4100  98.5596 14.12521795666371" 4825.png
python ../estimator.py --lat 53.7875 --lon 18.5273 --aos "2022-01-20 07:54:02.535537" --los "2022-01-20 08:01:02.706037" --tle1 "1 33591U 09005A   22013.93260389  .00000074  00000+0  65456-4 0  9993" --tle2 "2 33591  99.1670  44.6804 0013014 261.4100  98.5596 14.12521795666371" 4826.png
python ../estimator.py --lat 53.7875 --lon 18.5273 --aos "2022-01-20 09:58:02.089475" --los "2022-01-20 10:05:59.057661" --tle1 "1 28654U 05018A   22013.87772312  .00000089  00000+0  71973-4 0  9991" --tle2 "2 28654  98.9699  84.3148 0014856  51.3133 308.9365 14.12676473858157" 4829.png
python ../estimator.py --lat 53.7875 --lon 18.5273 --aos "2022-01-20 16:06:02.550035" --los "2022-01-20 16:12:45.941498" --tle1 "1 33591U 09005A   22013.93260389  .00000074  00000+0  65456-4 0  9993" --tle2 "2 33591  99.1670  44.6804 0013014 261.4100  98.5596 14.12521795666371" 4832.png
python ../estimator.py --lat 53.7875 --lon 18.5273 --aos "2022-01-20 17:44:02.078874" --los "2022-01-20 17:51:59.51548" --tle1 "1 25338U 98030A   22013.92577031  .00000056  00000+0  41618-4 0  9997" --tle2 "2 25338  98.6623  45.3451 0010861  33.0991 327.0867 14.26082030230992" 4834.png
python ../estimator.py --lat 53.7875 --lon 18.5273 --aos "2022-01-20 19:50:02.807173" --los "2022-01-20 19:58:23.507785" --tle1 "1 28654U 05018A   22013.87772312  .00000089  00000+0  71973-4 0  9991" --tle2 "2 28654  98.9699  84.3148 0014856  51.3133 308.9365 14.12676473858157" 4837.png
python ../estimator.py --lat 53.7875 --lon 18.5273 --aos "2022-01-21 05:53:02.64203" --los "2022-01-21 05:58:53.324351" --tle1 "1 25338U 98030A   22013.92577031  .00000056  00000+0  41618-4 0  9997" --tle2 "2 25338  98.6623  45.3451 0010861  33.0991 327.0867 14.26082030230992" 4840.png
python ../estimator.py --lat 53.7875 --lon 18.5273 --aos "2022-01-21 06:01:02.222931" --los "2022-01-21 06:08:22.480032" --tle1 "1 33591U 09005A   22013.93260389  .00000074  00000+0  65456-4 0  9993" --tle2 "2 33591  99.1670  44.6804 0013014 261.4100  98.5596 14.12521795666371" 4842.png
python ../estimator.py --lat 53.7875 --lon 18.5273 --aos "2022-01-21 07:32:02.890342" --los "2022-01-21 07:39:43.405063" --tle1 "1 25338U 98030A   22013.92577031  .00000056  00000+0  41618-4 0  9997" --tle2 "2 25338  98.6623  45.3451 0010861  33.0991 327.0867 14.26082030230992" 4844.png
python ../estimator.py --lat 53.7875 --lon 18.5273 --aos "2022-01-21 07:42:02.234577" --los "2022-01-21 07:49:32.511802" --tle1 "1 33591U 09005A   22013.93260389  .00000074  00000+0  65456-4 0  9993" --tle2 "2 33591  99.1670  44.6804 0013014 261.4100  98.5596 14.12521795666371" 4846.png
python ../estimator.py --lat 53.7875 --lon 18.5273 --aos "2022-01-21 09:46:02.773974" --los "2022-01-21 09:54:07.130432" --tle1 "1 28654U 05018A   22013.87772312  .00000089  00000+0  71973-4 0  9991" --tle2 "2 28654  98.9699  84.3148 0014856  51.3133 308.9365 14.12676473858157" 4849.png
python ../estimator.py --lat 53.7875 --lon 18.5273 --aos "2022-01-21 17:19:02.593577" --los "2022-01-21 17:26:49.262401" --tle1 "1 25338U 98030A   22021.57341518  .00000056  00000+0  41684-4 0  9999" --tle2 "2 25338  98.6615  52.9053 0010467  11.5818 348.5601 14.26083924232333" 4854.png
python ../estimator.py --lat 53.7875 --lon 18.5273 --aos "2022-01-21 17:34:02.474229" --los "2022-01-21 17:42:22.152334" --tle1 "1 33591U 09005A   22021.51188828  .00000069  00000+0  62719-4 0  9996" --tle2 "2 33591  99.1662  52.4317 0013144 238.6990 121.2894 14.12523801667708" 4856.png
python ../estimator.py --lat 53.7875 --lon 18.5273 --aos "2022-01-21 19:38:01.996729" --los "2022-01-21 19:46:21.940289" --tle1 "1 28654U 05018A   22021.52701549  .00000032  00000+0  41452-4 0  9993" --tle2 "2 28654  98.9684  91.9731 0014554  30.4541 329.7473 14.12678946859327" 4860.png
python ../estimator.py --lat 53.7875 --lon 18.5273 --aos "2022-01-22 05:50:02.513848" --los "2022-01-22 05:56:00.584066" --tle1 "1 33591U 09005A   22021.51188828  .00000069  00000+0  62719-4 0  9996" --tle2 "2 33591  99.1662  52.4317 0013144 238.6990 121.2894 14.12523801667708" 4864.png
python ../estimator.py --lat 53.7875 --lon 18.5273 --aos "2022-01-22 07:07:02.206291" --los "2022-01-22 07:14:48.253793" --tle1 "1 25338U 98030A   22021.57341518  .00000056  00000+0  41684-4 0  9999" --tle2 "2 25338  98.6615  52.9053 0010467  11.5818 348.5601 14.26083924232333" 4866.png
python ../estimator.py --lat 53.7875 --lon 18.5273 --aos "2022-01-22 07:30:02.639089" --los "2022-01-22 07:37:56.978073" --tle1 "1 33591U 09005A   22021.51188828  .00000069  00000+0  62719-4 0  9996" --tle2 "2 33591  99.1662  52.4317 0013144 238.6990 121.2894 14.12523801667708" 4868.png
python ../estimator.py --lat 53.7875 --lon 18.5273 --aos "2022-01-22 09:34:02.136902" --los "2022-01-22 09:42:09.964918" --tle1 "1 28654U 05018A   22021.52701549  .00000032  00000+0  41452-4 0  9993" --tle2 "2 28654  98.9684  91.9731 0014554  30.4541 329.7473 14.12678946859327" 4873.png
python ../estimator.py --lat 53.7875 --lon 18.5273 --aos "2022-01-22 16:54:02.489312" --los "2022-01-22 17:01:28.201946" --tle1 "1 25338U 98030A   22021.57341518  .00000056  00000+0  41684-4 0  9999" --tle2 "2 25338  98.6615  52.9053 0010467  11.5818 348.5601 14.26083924232333" 4877.png
python ../estimator.py --lat 53.7875 --lon 18.5273 --aos "2022-01-22 17:22:02.255395" --los "2022-01-22 17:30:34.292219" --tle1 "1 33591U 09005A   22021.51188828  .00000069  00000+0  62719-4 0  9996" --tle2 "2 33591  99.1662  52.4317 0013144 238.6990 121.2894 14.12523801667708" 4879.png
python ../estimator.py --lat 53.7875 --lon 18.5273 --aos "2022-01-22 19:26:02.828635" --los "2022-01-22 19:34:18.071248" --tle1 "1 28654U 05018A   22021.52701549  .00000032  00000+0  41452-4 0  9993" --tle2 "2 28654  98.9684  91.9731 0014554  30.4541 329.7473 14.12678946859327" 4884.png
python ../estimator.py --lat 53.7875 --lon 18.5273 --aos "2022-01-23 06:42:02.242055" --los "2022-01-23 06:49:32.814259" --tle1 "1 25338U 98030A   22021.57341518  .00000056  00000+0  41684-4 0  9999" --tle2 "2 25338  98.6615  52.9053 0010467  11.5818 348.5601 14.26083924232333" 4888.png
python ../estimator.py --lat 53.7875 --lon 18.5273 --aos "2022-01-23 07:18:02.5059" --los "2022-01-23 07:26:17.110152" --tle1 "1 33591U 09005A   22021.51188828  .00000069  00000+0  62719-4 0  9996" --tle2 "2 33591  99.1662  52.4317 0013144 238.6990 121.2894 14.12523801667708" 4890.png
python ../estimator.py --lat 53.7875 --lon 18.5273 --aos "2022-01-23 09:22:03.128583" --los "2022-01-23 09:30:08.992167" --tle1 "1 28654U 05018A   22021.52701549  .00000032  00000+0  41452-4 0  9993" --tle2 "2 28654  98.9684  91.9731 0014554  30.4541 329.7473 14.12678946859327" 4894.png
python ../estimator.py --lat 53.7875 --lon 18.5273 --aos "2022-01-23 16:29:02.677386" --los "2022-01-23 16:35:55.681168" --tle1 "1 25338U 98030A   22021.57341518  .00000056  00000+0  41684-4 0  9999" --tle2 "2 25338  98.6615  52.9053 0010467  11.5818 348.5601 14.26083924232333" 4898.png
